CCSDS_OMM_VERS = 2.0
CREATION_DATE  = 
ORIGINATOR     = 

OBJECT_NAME    = ELECTRON R/B
OBJECT_ID      = 2025-307B
CENTER_NAME    = EARTH
REF_FRAME      = TEME
TIME_SYSTEM    = UTC
MEAN_ELEMENT_THEORY = SGP/SGP4

EPOCH          = 2026-01-11T23:46:02.689824
MEAN_MOTION    = 15.82048587
ECCENTRICITY   = .01547308
INCLINATION    = 41.9929
RA_OF_ASC_NODE = 351.5422
ARG_OF_PERICENTER = 35.3502
MEAN_ANOMALY   = 325.7497

EPHEMERIS_TYPE = 0
CLASSIFICATION_TYPE = U
NORAD_CAT_ID   = 67229
ELEMENT_SET_NO = 999
REV_AT_EPOCH   = 340
BSTAR          = .18737501E-2
MEAN_MOTION_DOT = .1008139E-1
MEAN_MOTION_DDOT = .38930915E-3

CCSDS_OMM_VERS = 2.0
CREATION_DATE  = 
ORIGINATOR     = 

OBJECT_NAME    = ELECTRON KICK STAGE R/B
OBJECT_ID      = 2025-307C
CENTER_NAME    = EARTH
REF_FRAME      = TEME
TIME_SYSTEM    = UTC
MEAN_ELEMENT_THEORY = SGP/SGP4

EPOCH          = 2026-01-11T22:47:17.770272
MEAN_MOTION    = 16.02360794
ECCENTRICITY   = .0102839
INCLINATION    = 42.0002
RA_OF_ASC_NODE = 350.3511
ARG_OF_PERICENTER = 69.3563
MEAN_ANOMALY   = 291.8292

EPHEMERIS_TYPE = 0
CLASSIFICATION_TYPE = U
NORAD_CAT_ID   = 67230
ELEMENT_SET_NO = 999
REV_AT_EPOCH   = 181
BSTAR          = .19167E-2
MEAN_MOTION_DOT = .2321604E-1
MEAN_MOTION_DDOT = .80522E-5

CCSDS_OMM_VERS = 2.0
CREATION_DATE  = 
ORIGINATOR     = 

OBJECT_NAME    = SPACEMOBILE-006
OBJECT_ID      = 2025-309A
CENTER_NAME    = EARTH
REF_FRAME      = TEME
TIME_SYSTEM    = UTC
MEAN_ELEMENT_THEORY = SGP/SGP4

EPOCH          = 2026-01-11T07:02:05.015040
MEAN_MOTION    = 15.17732604
ECCENTRICITY   = .00117156
INCLINATION    = 52.9983
RA_OF_ASC_NODE = 329.7938
ARG_OF_PERICENTER = 18.5045
MEAN_ANOMALY   = 341.6372

EPHEMERIS_TYPE = 0
CLASSIFICATION_TYPE = U
NORAD_CAT_ID   = 67232
ELEMENT_SET_NO = 999
REV_AT_EPOCH   = 276
BSTAR          = .46882443E-4
MEAN_MOTION_DOT = .639E-5
MEAN_MOTION_DDOT = 0

CCSDS_OMM_VERS = 2.0
CREATION_DATE  = 
ORIGINATOR     = 

OBJECT_NAME    = LVM3 R/B
OBJECT_ID      = 2025-309B
CENTER_NAME    = EARTH
REF_FRAME      = TEME
TIME_SYSTEM    = UTC
MEAN_ELEMENT_THEORY = SGP/SGP4

EPOCH          = 2026-01-11T23:53:21.811776
MEAN_MOTION    = 15.19642401
ECCENTRICITY   = .00114801
INCLINATION    = 52.9273
RA_OF_ASC_NODE = 326.1286
ARG_OF_PERICENTER = 45.9650
MEAN_ANOMALY   = 314.2287

EPHEMERIS_TYPE = 0
CLASSIFICATION_TYPE = U
NORAD_CAT_ID   = 67233
ELEMENT_SET_NO = 999
REV_AT_EPOCH   = 287
BSTAR          = .39051908E-3
MEAN_MOTION_DOT = .8126E-4
MEAN_MOTION_DDOT = 0

CCSDS_OMM_VERS = 2.0
CREATION_DATE  = 
ORIGINATOR     = 

OBJECT_NAME    = 2025-310A
OBJECT_ID      = 2025-310A
CENTER_NAME    = EARTH
REF_FRAME      = TEME
TIME_SYSTEM    = UTC
MEAN_ELEMENT_THEORY = SGP/SGP4

EPOCH          = 2026-01-07T16:06:22.408416
MEAN_MOTION    = 14.75713796
ECCENTRICITY   = .00014299
INCLINATION    = 97.9664
RA_OF_ASC_NODE = 17.2888
ARG_OF_PERICENTER = 204.5799
MEAN_ANOMALY   = 155.5342

EPHEMERIS_TYPE = 0
CLASSIFICATION_TYPE = U
NORAD_CAT_ID   = 67234
ELEMENT_SET_NO = 999
REV_AT_EPOCH   = 195
BSTAR          = .12564798E-4
MEAN_MOTION_DOT = .36E-6
MEAN_MOTION_DDOT = 0

CCSDS_OMM_VERS = 2.0
CREATION_DATE  = 
ORIGINATOR     = 

OBJECT_NAME    = SL-4 R/B
OBJECT_ID      = 2025-310B
CENTER_NAME    = EARTH
REF_FRAME      = TEME
TIME_SYSTEM    = UTC
MEAN_ELEMENT_THEORY = SGP/SGP4

EPOCH          = 2026-01-11T15:59:35.575008
MEAN_MOTION    = 15.57463970
ECCENTRICITY   = .02717334
INCLINATION    = 97.9650
RA_OF_ASC_NODE = 23.0511
ARG_OF_PERICENTER = 14.9148
MEAN_ANOMALY   = 345.9920

EPHEMERIS_TYPE = 0
CLASSIFICATION_TYPE = U
NORAD_CAT_ID   = 67235
ELEMENT_SET_NO = 999
REV_AT_EPOCH   = 265
BSTAR          = .59514898E-3
MEAN_MOTION_DOT = .281958E-2
MEAN_MOTION_DDOT = .2373904E-5

CCSDS_OMM_VERS = 2.0
CREATION_DATE  = 
ORIGINATOR     = 

OBJECT_NAME    = HULIANWANG DIGUI-128
OBJECT_ID      = 2025-311A
CENTER_NAME    = EARTH
REF_FRAME      = TEME
TIME_SYSTEM    = UTC
MEAN_ELEMENT_THEORY = SGP/SGP4

EPOCH          = 2026-01-11T23:14:27.105792
MEAN_MOTION    = 13.90209992
ECCENTRICITY   = .0006548
INCLINATION    = 50.0103
RA_OF_ASC_NODE = 328.0273
ARG_OF_PERICENTER = 333.9303
MEAN_ANOMALY   = 26.1265

EPHEMERIS_TYPE = 0
CLASSIFICATION_TYPE = U
NORAD_CAT_ID   = 67236
ELEMENT_SET_NO = 999
REV_AT_EPOCH   = 237
BSTAR          = .11609653E-3
MEAN_MOTION_DOT = -.2E-7
MEAN_MOTION_DDOT = 0

CCSDS_OMM_VERS = 2.0
CREATION_DATE  = 
ORIGINATOR     = 

OBJECT_NAME    = HULIANWANG DIGUI-129
OBJECT_ID      = 2025-311B
CENTER_NAME    = EARTH
REF_FRAME      = TEME
TIME_SYSTEM    = UTC
MEAN_ELEMENT_THEORY = SGP/SGP4

EPOCH          = 2026-01-11T23:16:09.056928
MEAN_MOTION    = 13.90166288
ECCENTRICITY   = .00077925
INCLINATION    = 50.0092
RA_OF_ASC_NODE = 328.0309
ARG_OF_PERICENTER = 335.5318
MEAN_ANOMALY   = 24.5210

EPHEMERIS_TYPE = 0
CLASSIFICATION_TYPE = U
NORAD_CAT_ID   = 67237
ELEMENT_SET_NO = 999
REV_AT_EPOCH   = 237
BSTAR          = .10783333E-3
MEAN_MOTION_DOT = -.12E-6
MEAN_MOTION_DDOT = 0

CCSDS_OMM_VERS = 2.0
CREATION_DATE  = 
ORIGINATOR     = 

OBJECT_NAME    = HULIANWANG DIGUI-130
OBJECT_ID      = 2025-311C
CENTER_NAME    = EARTH
REF_FRAME      = TEME
TIME_SYSTEM    = UTC
MEAN_ELEMENT_THEORY = SGP/SGP4

EPOCH          = 2026-01-11T23:25:53.641920
MEAN_MOTION    = 13.90217882
ECCENTRICITY   = .00077661
INCLINATION    = 50.0072
RA_OF_ASC_NODE = 328.0615
ARG_OF_PERICENTER = 312.8617
MEAN_ANOMALY   = 47.1628

EPHEMERIS_TYPE = 0
CLASSIFICATION_TYPE = U
NORAD_CAT_ID   = 67238
ELEMENT_SET_NO = 999
REV_AT_EPOCH   = 237
BSTAR          = .11918254E-3
MEAN_MOTION_DOT = .2E-7
MEAN_MOTION_DDOT = 0

CCSDS_OMM_VERS = 2.0
CREATION_DATE  = 
ORIGINATOR     = 

OBJECT_NAME    = HULIANWANG DIGUI-131
OBJECT_ID      = 2025-311D
CENTER_NAME    = EARTH
REF_FRAME      = TEME
TIME_SYSTEM    = UTC
MEAN_ELEMENT_THEORY = SGP/SGP4

EPOCH          = 2026-01-11T21:46:48.683424
MEAN_MOTION    = 13.90204890
ECCENTRICITY   = .00093686
INCLINATION    = 50.0068
RA_OF_ASC_NODE = 328.3624
ARG_OF_PERICENTER = 320.0661
MEAN_ANOMALY   = 39.9548

EPHEMERIS_TYPE = 0
CLASSIFICATION_TYPE = U
NORAD_CAT_ID   = 67239
ELEMENT_SET_NO = 999
REV_AT_EPOCH   = 236
BSTAR          = .12049163E-3
MEAN_MOTION_DOT = .4E-7
MEAN_MOTION_DDOT = 0

CCSDS_OMM_VERS = 2.0
CREATION_DATE  = 
ORIGINATOR     = 

OBJECT_NAME    = HULIANWANG DIGUI-132
OBJECT_ID      = 2025-311E
CENTER_NAME    = EARTH
REF_FRAME      = TEME
TIME_SYSTEM    = UTC
MEAN_ELEMENT_THEORY = SGP/SGP4

EPOCH          = 2026-01-11T23:21:30.280032
MEAN_MOTION    = 13.90230817
ECCENTRICITY   = .00084505
INCLINATION    = 50.0080
RA_OF_ASC_NODE = 328.0473
ARG_OF_PERICENTER = 326.9851
MEAN_ANOMALY   = 33.0519

EPHEMERIS_TYPE = 0
CLASSIFICATION_TYPE = U
NORAD_CAT_ID   = 67240
ELEMENT_SET_NO = 999
REV_AT_EPOCH   = 237
BSTAR          = .11123404E-3
MEAN_MOTION_DOT = -.8E-7
MEAN_MOTION_DDOT = 0

CCSDS_OMM_VERS = 2.0
CREATION_DATE  = 
ORIGINATOR     = 

OBJECT_NAME    = HULIANWANG DIGUI-133
OBJECT_ID      = 2025-311F
CENTER_NAME    = EARTH
REF_FRAME      = TEME
TIME_SYSTEM    = UTC
MEAN_ELEMENT_THEORY = SGP/SGP4

EPOCH          = 2026-01-11T21:35:17.719296
MEAN_MOTION    = 13.90208759
ECCENTRICITY   = .0007569
INCLINATION    = 50.0124
RA_OF_ASC_NODE = 328.3340
ARG_OF_PERICENTER = 330.8396
MEAN_ANOMALY   = 29.2080

EPHEMERIS_TYPE = 0
CLASSIFICATION_TYPE = U
NORAD_CAT_ID   = 67241
ELEMENT_SET_NO = 999
REV_AT_EPOCH   = 236
BSTAR          = .11643255E-3
MEAN_MOTION_DOT = -.1E-7
MEAN_MOTION_DDOT = 0

