ELECTRON R/B            
1 67229U 25307B   26011.99030891  .01008139  38931-3  18738-2 0  9990
2 67229  41.9929 351.5422 0154730  35.3502 325.7497 15.82048587  3404
ELECTRON KICK STAGE R/B 
1 67230U 25307C   26011.94951123  .02321604  80522-5  19167-2 0  9995
2 67230  42.0002 350.3511 0102839  69.3563 291.8292 16.02360794  1812
SPACEMOBILE-006         
1 67232U 25309A   26011.29311360  .00000639  00000+0  46882-4 0  9993
2 67232  52.9983 329.7938 0011715  18.5045 341.6372 15.17732604  2764
LVM3 R/B                
1 67233U 25309B   26011.99539134  .00008126  00000+0  39052-3 0  9991
2 67233  52.9273 326.1286 0011480  45.9650 314.2287 15.19642401  2879
2025-310A               
1 67234U 25310A   26007.67109269  .00000036  00000+0  12565-4 0  9999
2 67234  97.9664  17.2888 0001429 204.5799 155.5342 14.75713796  1951
SL-4 R/B                
1 67235U 25310B   26011.66638397  .00281958  23739-5  59515-3 0  9992
2 67235  97.9650  23.0511 0271733  14.9148 345.9920 15.57463970  2655
HULIANWANG DIGUI-128    
1 67236U 25311A   26011.96836928 -.00000002  00000+0  11610-3 0  9991
2 67236  50.0103 328.0273 0006548 333.9303  26.1265 13.90209992  2375
HULIANWANG DIGUI-129    
1 67237U 25311B   26011.96954927 -.00000012  00000+0  10783-3 0  9993
2 67237  50.0092 328.0309 0007792 335.5318  24.5210 13.90166288  2371
HULIANWANG DIGUI-130    
1 67238U 25311C   26011.97631530  .00000002  00000+0  11918-3 0  9996
2 67238  50.0072 328.0615 0007766 312.8617  47.1628 13.90217882  2372
HULIANWANG DIGUI-131    
1 67239U 25311D   26011.90750791  .00000004  00000+0  12049-3 0  9999
2 67239  50.0068 328.3624 0009368 320.0661  39.9548 13.90204890  2365
HULIANWANG DIGUI-132    
1 67240U 25311E   26011.97326713 -.00000008  00000+0  11123-3 0  9998
2 67240  50.0080 328.0473 0008450 326.9851  33.0519 13.90230817  2379
HULIANWANG DIGUI-133    
1 67241U 25311F   26011.89951064 -.00000001  00000+0  11643-3 0  9993
2 67241  50.0124 328.3340 0007569 330.8396  29.2080 13.90208759  2362
